GLOBALSTAR M084         
1 38040U 11080A   23321.52311872 -.00000083  00000+0  11671-3 0  9995
2 38040  52.0033   7.0955 0000388 149.3823   1.4624 12.62267744549719
GLOBALSTAR M080         
1 38041U 11080B   23321.32254062 -.00000086  00000+0  99445-4 0  9990
2 38041  52.0085   9.1096 0000606 151.7415 287.2582 12.62266171549814
GLOBALSTAR M082         
1 38042U 11080C   23321.42977682 -.00000092  00000+0  64752-4 0  9992
2 38042  52.0088 324.1674 0000847  25.0172 122.7414 12.62268010550532
GLOBALSTAR M092         
1 38043U 11080D   23321.53205997 -.00000097  00000+0  37220-4 0  9993
2 38043  52.0100  54.1974 0000503 157.6478 215.7714 12.62262640549000
GLOBALSTAR M090         
1 38044U 11080E   23321.77795501 -.00000090  00000+0  78279-4 0  9997
2 38044  51.9897 317.6590 0000621  47.0066 124.4962 12.62263542550734
GLOBALSTAR M086         
1 38045U 11080F   23321.29465683 -.00000084  00000+0  10856-3 0  9999
2 38045  51.9909 319.6385 0001226 103.3079 269.9235 12.62264380550587
GLOBALSTAR M097         
1 39072U 13005A   23321.47657311 -.00000082  00000+0  11896-3 0  9993
2 39072  52.0045 233.0437 0001144  65.8929 294.2057 12.62272596497854
GLOBALSTAR M093         
1 39073U 13005B   23321.45009891 -.00000072  00000+0  17856-3 0  9997
2 39073  51.9809 227.3524 0001404  68.7856 291.3160 12.62268956497807
